OBJECT_NAME,OBJECT_ID,EPOCH,MEAN_MOTION,ECCENTRICITY,INCLINATION,RA_OF_ASC_NODE,ARG_OF_PERICENTER,MEAN_ANOMALY,EPHEMERIS_TYPE,CLASSIFICATION_TYPE,NORAD_CAT_ID,ELEMENT_SET_NO,REV_AT_EPOCH,BSTAR,MEAN_MOTION_DOT,MEAN_MOTION_DDOT
STARLINK-37214,2026-059AA,2026-07-21T15:45:25.158816,15.34414945,.00015224,53.1599,79.8002,110.1925,249.9241,0,U,68345,999,1877,.706699E-3,.23587E-3,0
STARLINK-37169,2026-059AB,2026-07-21T01:26:14.368128,15.34410214,.00013691,53.1583,83.1915,80.4541,279.6616,0,U,68346,999,1867,.40539028E-3,.13349E-3,0
STARLINK-37136,2026-059AC,2026-07-20T22:53:19.073472,15.30199967,.00014013,53.1592,88.9215,54.2476,305.8655,0,U,68347,999,1858,.48959332E-3,.14169E-3,0
STARLINK-37182,2026-059AD,2026-07-21T01:02:00.124800,15.34410636,.00015333,53.1579,83.0823,104.4474,255.6699,0,U,68348,999,1867,.57109902E-3,.18975E-3,0
STARLINK-37183,2026-059AE,2026-07-20T22:48:45.379008,15.30204741,.0001466,53.1594,88.8991,109.2313,250.8846,0,U,68349,999,1858,.42451786E-3,.12236E-3,0
CENTISPACE-2 S1,2026-060A,2026-07-21T14:36:24.539040,14.53413587,.00067403,54.9809,259.7508,284.7706,75.2537,0,U,68350,999,1778,.75241133E-4,.141E-5,0
CENTISPACE-2 S2,2026-060B,2026-07-21T10:43:33.536352,14.52971207,.0006349,54.9822,260.8019,272.4933,87.5329,0,U,68351,999,1775,.86367949E-4,.185E-5,0
CENTISPACE-2 S3,2026-060C,2026-07-20T15:02:22.222176,14.54113175,.0010025,54.9828,263.4430,267.3579,92.6263,0,U,68352,999,1764,.10048E-3,.252E-5,0
CENTISPACE-2 S4,2026-060D,2026-07-21T13:11:13.541856,14.53018796,.00095329,54.9827,260.0914,270.3824,89.6073,0,U,68353,999,1777,.10836013E-3,.277E-5,0
CENTISPACE-2 S5,2026-060E,2026-07-21T09:25:06.094560,14.53034684,.00090165,54.9764,260.4317,247.9174,112.0859,0,U,68354,999,1775,.81130093E-4,.164E-5,0
CENTISPACE-2 S6,2026-060F,2026-07-21T11:41:09.153600,14.52950189,.00084331,54.9761,260.3124,263.8335,96.1694,0,U,68355,999,1776,.89208066E-4,.197E-5,0
CENTISPACE-2 S7,2026-060G,2026-07-21T10:51:12.498336,14.53675385,.0007815,54.9854,260.2481,270.6710,89.3385,0,U,68356,999,1776,.63429852E-4,.93E-6,0
CENTISPACE-2 S8,2026-060H,2026-07-21T10:36:07.334784,14.53855837,.00061121,54.9852,260.1836,267.7007,92.3283,0,U,68357,999,1776,.88953295E-4,.202E-5,0
CENTISPACE-2 S9,2026-060J,2026-07-21T13:24:13.020192,14.52830141,.00089072,54.9801,260.1140,272.7324,87.2646,0,U,68358,999,1777,.88244994E-4,.192E-5,0
CENTISPACE-2 S10,2026-060K,2026-07-21T12:49:20.548704,14.53063040,.000857,54.9788,259.9576,271.2035,88.7973,0,U,68359,999,1777,.89362859E-4,.198E-5,0
RASSVET-3 1,2026-061A,2026-07-21T08:11:33.213696,15.18055066,.00010625,82.2921,337.1889,154.5497,205.5788,0,U,68360,999,1875,.84179988E-4,.1744E-4,0
RASSVET-3 2,2026-061B,2026-07-21T10:08:45.658752,15.27848668,.00105485,82.2933,335.7273,337.6608,22.4170,0,U,68361,999,1885,-.106974E-1,-.280282E-2,0
RASSVET-3 3,2026-061C,2026-07-21T07:52:50.199456,15.18056799,.00035497,82.2970,339.3144,116.6498,243.5099,0,U,68362,999,1862,.97354974E-4,.2012E-4,0
RASSVET-3 5,2026-061E,2026-07-21T15:56:48.939648,15.18047994,.00015955,82.2977,339.8064,146.8202,213.3132,0,U,68364,999,1862,.10087439E-3,.2083E-4,0
RASSVET-3 6,2026-061F,2026-07-21T15:50:36.045024,15.18052616,.00028279,82.2956,339.4612,103.3426,256.8123,0,U,68365,999,1864,.10255795E-3,.2118E-4,0
RASSVET-3 7,2026-061G,2026-07-21T07:59:08.827584,15.18036858,.00028772,82.2954,339.1493,72.3788,287.7759,0,U,68366,999,1863,.90279068E-4,.1867E-4,0
RASSVET-3 8,2026-061H,2026-07-21T09:53:27.073824,15.18017566,.00074193,82.2933,336.5196,321.7318,38.3387,0,U,68367,999,1880,-.87283521E-2,-.173258E-2,0
RASSVET-3 9,2026-061J,2026-07-21T08:08:24.995616,15.18057058,.00032531,82.2940,337.3756,176.2459,183.8800,0,U,68368,999,1874,.88460015E-4,.1831E-4,0
RASSVET-3 10,2026-061K,2026-07-21T10:43:48.898272,15.59765387,.00006284,82.2867,332.9565,62.3147,297.8172,0,U,68369,999,1903,-.10556937E-2,-.83385E-3,0
RASSVET-3 11,2026-061L,2026-07-21T08:18:20.466144,15.67367366,.00073263,82.2930,334.3214,48.4604,311.7283,0,U,68370,999,1893,.37609902E-3,.4074E-3,0
RASSVET-3 12,2026-061M,2026-07-21T15:59:55.291488,15.18048354,.00002843,82.2960,339.4618,126.2813,233.8446,0,U,68371,999,1864,.99384699E-4,.2052E-4,0
RASSVET-3 13,2026-061N,2026-07-21T08:17:46.785696,15.18111636,.00016181,82.2972,339.3716,229.3042,130.8051,0,U,68372,999,1862,.10441224E-3,.2159E-4,0
RASSVET-3 14,2026-061P,2026-07-21T08:52:04.273824,15.71809598,.00085586,82.2941,334.3663,1.4976,358.6310,0,U,68373,999,1893,.28905702E-3,.3761E-3,0
RASSVET-3 15,2026-061Q,2026-07-21T11:34:40.469376,15.19989101,.00064908,82.2966,336.1619,181.0201,179.1021,0,U,68374,999,1883,-.32165389E-2,-.68513E-3,0
RASSVET-3 16,2026-061R,2026-07-21T08:14:39.116256,15.18021109,.00010401,82.2942,337.3872,164.8319,195.2945,0,U,68375,999,1874,.84981166E-4,.1758E-4,0
SUPERVIEW NEO-2 05,2026-062A,2026-07-21T12:29:51.799488,15.19722031,.00015957,97.4395,209.3391,89.5248,270.6169,0,U,68377,999,1786,.63996869E-4,.1299E-4,0
SUPERVIEW NEO-2 06,2026-062B,2026-07-21T12:29:51.685440,15.19723002,.00013364,97.4400,209.3440,116.0366,244.1007,0,U,68378,999,1786,.78146164E-4,.1601E-4,0
STARLINK-36296,2026-063A,2026-07-21T08:34:58.052640,15.33462114,.00016463,97.2864,347.0620,90.5185,269.6247,0,U,68380,999,1857,.37658989E-3,.12109E-3,0
STARLINK-37111,2026-063B,2026-07-21T16:01:55.060032,15.33484795,.00003888,97.2855,344.3552,223.6603,136.4609,0,U,68381,999,1842,.50976644E-3,.16438E-3,0
STARLINK-36946,2026-063C,2026-07-21T08:51:14.355360,15.33467789,.00010964,97.2854,344.1501,94.4391,265.6977,0,U,68382,999,1838,.55395753E-3,.17864E-3,0
STARLINK-37121,2026-063D,2026-07-21T08:19:55.025760,15.33459012,.00007127,97.2855,344.0271,123.0405,237.0906,0,U,68383,999,1837,.47743592E-3,.15376E-3,0
STARLINK-37137,2026-063E,2026-07-21T08:47:19.310208,15.33459675,.00009664,97.2856,344.1525,167.3359,192.7909,0,U,68384,999,1838,.45005971E-3,.14489E-3,0
STARLINK-37128,2026-063F,2026-07-21T07:48:35.716032,15.33461480,.00012676,97.2854,344.0547,86.5718,273.5670,0,U,68385,999,1837,.51659975E-3,.16648E-3,0
STARLINK-37198,2026-063G,2026-07-21T08:27:44.684928,15.33457292,.00008382,97.2863,344.1702,200.3856,159.7354,0,U,68386,999,1838,.44260284E-3,.14246E-3,0
STARLINK-37223,2026-063H,2026-07-21T09:18:38.854944,15.33457435,.00014062,97.2858,344.1227,98.2399,261.9004,0,U,68387,999,1838,.41387961E-3,.13315E-3,0
STARLINK-37203,2026-063J,2026-07-21T15:11:01.631328,15.33456780,.00011988,97.2864,344.4031,91.2737,268.8643,0,U,68388,999,1842,.50839309E-3,.16379E-3,0
STARLINK-37197,2026-063K,2026-07-21T08:39:29.592288,15.33434293,.00006944,97.2855,344.1585,139.3251,220.8044,0,U,68389,999,1838,.78893962E-3,.25472E-3,0
STARLINK-37193,2026-063L,2026-07-21T15:14:19.704192,15.33464078,.00012196,97.2866,347.2991,87.3752,272.7630,0,U,68390,999,1861,.58526798E-3,.18878E-3,0
STARLINK-37216,2026-063M,2026-07-21T15:50:10.627008,15.33462753,.00009887,97.2864,344.3673,104.3772,255.7580,0,U,68391,999,1842,.53038745E-3,.17096E-3,0
STARLINK-37215,2026-063N,2026-07-21T15:42:20.355264,15.33467375,.00009826,97.2855,344.3710,188.4675,171.6551,0,U,68392,999,1842,.45871199E-3,.14773E-3,0
STARLINK-37184,2026-063P,2026-07-21T15:18:51.296544,15.33454605,.00001487,97.2868,344.3944,134.4818,225.6437,0,U,68393,999,1842,.56766553E-3,.18301E-3,0
STARLINK-37157,2026-063Q,2026-07-21T08:31:41.349216,15.33479120,.00001322,97.2853,344.1681,115.1540,244.9716,0,U,68394,999,1838,.13995177E-2,.45427E-3,0
STARLINK-37172,2026-063R,2026-07-21T08:16:00.011712,15.33466263,.00005914,97.2852,344.0308,82.5005,277.6304,0,U,68395,999,1837,.59014882E-3,.19038E-3,0
STARLINK-37190,2026-063S,2026-07-21T08:43:24.254688,15.33466570,.00009272,97.2854,344.1580,215.0754,145.0428,0,U,68396,999,1838,.58217525E-3,.18779E-3,0
STARLINK-37194,2026-063T,2026-07-21T15:30:35.815968,15.33464407,.00005077,97.2861,344.3840,121.7922,238.3371,0,U,68397,999,1842,.77637515E-3,.25088E-3,0
STARLINK-37220,2026-063U,2026-07-21T07:56:25.548864,15.33457711,.0001192,97.2853,344.0487,101.2550,258.8826,0,U,68398,999,1837,.51566437E-3,.16616E-3,0
STARLINK-37187,2026-063V,2026-07-21T08:23:49.860096,15.33462842,.00006903,97.2860,344.1740,106.8065,253.3254,0,U,68399,999,1838,.44318423E-3,.14268E-3,0
STARLINK-36235,2026-063W,2026-07-21T09:06:53.984736,15.33463579,.00020744,97.2847,344.1364,124.6364,235.5075,0,U,68400,999,1838,.51482342E-3,.16592E-3,0
STARLINK-37175,2026-063X,2026-07-21T08:08:10.293792,15.33452498,.00009948,97.2857,344.0347,100.8714,259.2641,0,U,68401,999,1837,.27592454E-3,.8845E-4,0
STARLINK-36360,2026-063Y,2026-07-21T15:26:41.145792,15.33455526,.00003386,97.2855,344.3897,105.4180,254.7100,0,U,68402,999,1842,.42061322E-3,.13533E-3,0
STARLINK-37218,2026-063Z,2026-07-21T08:19:49.459872,15.36996453,.0001729,97.2850,347.0677,118.9275,241.2143,0,U,68403,999,1857,.5403767E-3,.19503E-3,0
STARLINK-37188,2026-063AA,2026-07-21T08:35:32.963424,15.33464138,.00003408,97.2897,344.1686,199.7709,160.3521,0,U,68404,999,1838,.15918232E-3,.507E-4,0
SHIYAN-33,2026-064A,2026-07-21T17:17:23.816256,15.24192867,.0014024,97.4608,278.0793,178.7995,181.3278,0,U,68405,999,1775,.17055E-3,.4092E-4,0
LPNTSAT-001 (IOD-1),2026-065A,2026-07-21T11:19:40.893312,15.18689238,.00147742,97.3972,82.2514,242.1794,117.7944,0,U,68408,999,1746,.88218233E-4,.1766E-4,0
LPNTSAT-002 (IOD-2),2026-065B,2026-07-21T05:43:36.144192,15.19628183,.00120836,97.3961,82.0888,236.5510,123.4570,0,U,68409,999,1741,.21951583E-3,.4617E-4,0
XINZHENGCHENG-01,2026-066A,2026-07-21T10:46:25.892256,14.88435122,.00271433,84.9652,205.9467,130.6142,229.7449,0,U,68412,999,1682,.40723921E-4,.411E-5,0
XINZHENGCHENG 01,2026-066C,2026-07-21T15:15:39.135168,14.88678978,.00277801,84.9646,205.8042,130.6106,229.7541,0,U,68414,999,1685,.76892793E-4,.753E-5,0
TIANSHI-01,2026-066D,2026-07-21T10:24:31.182336,14.88781958,.00272853,84.9649,205.9306,130.4237,229.9373,0,U,68415,999,1682,.93540958E-4,.911E-5,0
TRANSPORTER-16 OBJECT A,2026-067A,2026-07-21T07:56:57.460704,15.19853980,.00036035,97.4564,160.4965,121.3262,238.8326,0,U,68416,999,1713,.22557616E-3,.477E-4,0
